OPTICUBE 04             
1 41851U 16067D   24271.19250530  .00006363  00000+0  46328-3 0  9993
2 41851  98.0859  80.5482 0019064  76.1854 284.1491 15.04015224430569
AEROCUBE 8D             
1 41852U 16067E   24270.94933992  .00015220  00000+0  93071-3 0  9995
2 41852  98.1142  85.9218 0005590 122.8942 237.2824 15.10339611430743
AEROCUBE 8C             
1 41853U 16067F   24270.76633227  .00015801  00000+0  96611-3 0  9992
2 41853  98.0961  84.0585 0007779  60.0788 300.1212 15.10323885430704
PROMETHEUS 2-1          
1 41854U 16067G   24271.03801159  .00036027  00000+0  15332-2 0  9998
2 41854  98.1017  93.5792 0011078  70.0781 290.1646 15.22857309431205
PROMETHEUS 2-3          
1 41855U 16067H   24270.77459409  .00034834  00000+0  14875-2 0  9991
2 41855  98.0952  92.6851 0009486  80.9344 279.2964 15.22763842431168
CORVUS BC2              
1 42846U 17042X   24271.50090898  .00008104  00000+0  67024-3 0  9997
2 42846  97.3748  91.0117 0008419  78.7791 281.4379 14.99129112392764
CORVUS BC1              
1 42847U 17042Y   24271.45138629  .00008365  00000+0  68858-3 0  9992
2 42847  97.3752  91.3787 0009840  78.5131 281.7197 14.99293918392779
MIRATA                  
1 43015U 17073C   24270.93799205  .00045533  00000+0  18309-2 0  9992
2 43015  97.5771 154.8699 0148214 271.6457  86.7804 15.15164103371691
MAKERSAT 0              
1 43016U 17073D   24271.41675897  .00026008  00000+0  13666-2 0  9994
2 43016  97.5548 147.7140 0180299 296.2580  62.0214 15.02650767371239
GOMX-4B                 
1 43196U 18015E   24271.47127152  .00572483  14946-3  10622-2 0  9992
2 43196  97.5928  94.8857 0007836 270.6799  89.3581 16.01069923371631
SIRION PATHFINDER-2     
1 43759U 18099B   24271.37989903  .00010318  00000+0  73692-3 0  9991
2 43759  97.5170 324.7086 0009573 302.1068  57.9229 15.04650427317866
CORVUS BC4              
1 43767U 18099K   24270.86654630  .00010075  00000+0  73706-3 0  9995
2 43767  97.5027 321.0970 0009916  11.4397 348.7053 15.03749112317667
MOVE-II                 
1 43780U 18099Y   24271.13768019  .00054252  00000+0  22755-2 0  9990
2 43780  97.5093 333.5806 0004200 345.8294  14.2824 15.23287821318402
SPACEBEE-7              
1 43816U 18099BL  24270.61009943  .00030070  00000+0  15417-2 0  9995
2 43816  97.5371 333.3241 0007689 294.8580  65.1853 15.16480557317754
SPACEBEE-6              
1 43818U 18099BN  24270.94218742  .00104874  00000+0  29133-2 0  9996
2 43818  97.5285 341.2160 0006758 270.1972  89.8497 15.36446608318452
SHIELDS 1               
1 43850U 18104B   24271.28897789  .00029929  00000+0  69037-3 0  9996
2 43850  85.0230 213.5927 0013106  59.9345 300.3206 15.42327848321874
SONATE                  
1 44400U 19038Q   24270.88459889  .00046996  00000+0  11245-2 0  9995
2 44400  97.7165 270.0163 0017539 101.9983 258.3230 15.41158537289703
LUCKY-7                 
1 44406U 19038W   24270.95992003  .00119191  00000+0  14885-2 0  9990
2 44406  97.7011 276.1601 0013890  89.3442 270.9405 15.59340554290132
DUCHIFAT-3              
1 44854U 19089C   24271.35714945  .00030438  00000+0  13065-2 0  9990
2 44854  36.9539 146.4757 0008917 261.7366  98.2371 15.21842549263745
M2 PATHFINDER           
1 45727U 20037E   24271.07100603  .00007236  00000+0  60963-3 0  9994
2 45727  97.7824  87.0926 0011132 139.7102 220.4947 14.98453677231195
NETSAT-4                
1 46504U 20068U   24271.13728817  .00022073  00000+0  10692-2 0  9991
2 46504  97.8154 231.3054 0010349  28.8122 331.3681 15.18519542219629
NETSAT-3                
1 46505U 20068V   24271.42536299  .00018858  00000+0  92914-3 0  9999
2 46505  97.8135 230.9804 0010201  36.8868 323.3064 15.17962989219655
NETSAT-1                
1 46506U 20068W   24271.14230088  .00016682  00000+0  87874-3 0  9998
2 46506  97.8157 229.8842 0009625  46.7658 313.4375 15.15643911219557
NETSAT-2                
1 46507U 20068X   24271.15718355  .00022499  00000+0  10898-2 0  9992
2 46507  97.8139 230.9286 0009026  52.9792 307.2266 15.18528960219577
WILDTRACKCUBE-SIMBA     
1 47941U 21022K   24271.50406227  .00028796  00000+0  11087-2 0  9994
2 47941  97.4450 167.5797 0015817 135.8053 224.4452 15.26207471194041
GRBALPHA                
1 47959U 21022AD  24271.51861865  .00048363  00000+0  15021-2 0  9991
2 47959  97.4446 170.2745 0014837 124.3419 235.9229 15.33099256193045
BEESAT-8                
1 48085U 21022AP  24269.69489623  .00078660  00000+0  18000-2 0  9999
2 48085  97.4661 173.3761 0013577 114.7357 245.5305 15.42423250193318
LEDSAT                  
1 49069U 21073D   24271.45839028  .00034715  00000+0  11652-2 0  9992
2 49069  97.4275 342.2210 0015905 279.7281  80.2164 15.30669051172067
ROBUSTA-1F (MTCUBE 2)   
1 53109U 22080E   24269.63549959 -.00000003  00000+0  00000+0 0  9995
2 53109  70.1256 157.2023 0008080  67.4234 292.7280  6.42583957 51615
SITRO-AIS 5 (KATYS)     
1 57176U 23091L   24271.49547373  .00016230  00000+0  96356-3 0  9992
2 57176  97.6018 322.9159 0018142 130.0214 230.2611 15.11259503 68930
SITRO-AIS 6 (CHIRKIN)   
1 57192U 23091AC  24271.47708267  .00015737  00000+0  93354-3 0  9995
2 57192  97.6018 322.9279 0018180 129.5269 230.7571 15.11296880 68935
SITRO-AIS 8 (ANOKHIN)   
1 57193U 23091AD  24271.48381741  .00017110  00000+0  10000-2 0  9994
2 57193  97.6017 323.0622 0017790 130.4180 229.8605 15.11820361 68943
SITRO-AIS 7 (FARTUSHNIY)
1 57194U 23091AE  24271.48578209  .00015982  00000+0  94978-3 0  9994
2 57194  97.6017 322.9081 0017929 130.2305 230.0497 15.11230414 68938
SITRO-AIS 10 (BURDAEV)  
1 57199U 23091AK  24271.52289376  .00018761  00000+0  10358-2 0  9995
2 57199  97.6026 324.3236 0013179 118.6257 241.6302 15.13908108 69028
SITRO-AIS 9 (SHCHUKIN)  
1 57201U 23091AM  24271.52281427  .00018368  00000+0  10152-2 0  9993
2 57201  97.6022 324.2941 0013153 118.6159 241.6397 15.13874563 69024
SITRO-AIS 12 (SMIRENNIY)
1 57204U 23091AQ  24271.47220722  .00018755  00000+0  10307-2 0  9993
2 57204  97.6034 324.4164 0013142 113.3958 246.8657 15.14073220 69024
SITRO-AIS 11 (SHEFFER)  
1 57208U 23091AU  24271.38502691  .00018021  00000+0  98746-3 0  9995
2 57208  97.6027 324.3649 0012858 114.0437 246.2141 15.14189535 69018
ROBUSTA-1E (ENSO)       
1 58470U 23185J   24271.51870339  .00033917  00000+0  12056-2 0  9993
2 58470  97.4155 337.4569 0010034 273.5258  86.4834 15.28880791 45746
SITRO-AIS 29            
1 59052U 24039B   24271.50131058  .00054376  00000+0  15460-2 0  9990
2 59052  97.4002 233.2177 0013290 194.6033 165.4829 15.35883323 32259
SITRO-AIS 30            
1 59053U 24039C   24271.50913150  .00051652  00000+0  14810-2 0  9994
2 59053  97.4002 233.2015 0013512 196.6863 163.3938 15.35629424 32248
SITRO-AIS 31            
1 59054U 24039D   24271.49061112  .00051057  00000+0  14528-2 0  9990
2 59054  97.3999 233.2272 0013274 195.9296 164.1532 15.35875115 32266
SITRO-AIS 33            
1 59055U 24039E   24271.53927037  .00049644  00000+0  14077-2 0  9991
2 59055  97.4002 233.3243 0012962 196.2476 163.8354 15.35994906 32267
SITRO-AIS 35            
1 59056U 24039F   24271.53435767  .00050145  00000+0  14219-2 0  9992
2 59056  97.4002 233.3266 0012770 196.1538 163.9301 15.35994551 32267
SITRO-AIS 32            
1 59057U 24039G   24271.55033198  .00051720  00000+0  14737-2 0  9992
2 59057  97.4006 233.3085 0013067 196.6917 163.3899 15.35830933 32266
SITRO-AIS 34            
1 59058U 24039H   24271.53980057  .00050724  00000+0  14364-2 0  9995
2 59058  97.4003 233.3251 0012840 196.1297 163.9540 15.36032673 32268
SITRO-AIS 36            
1 59059U 24039J   24271.52433571  .00052841  00000+0  14927-2 0  9996
2 59059  97.4003 233.3408 0012718 196.1794 163.9046 15.36100098 32267
SITRO-AIS 49            
1 59060U 24039K   24271.52986749  .00052555  00000+0  14912-2 0  9994
2 59060  97.4004 233.3336 0012809 195.9783 164.1059 15.35961969 32264
SITRO-AIS 50            
1 59061U 24039L   24271.50717593  .00053661  00000+0  15057-2 0  9992
2 59061  97.4003 233.3615 0012598 195.0380 165.0491 15.36308046 32265
SITRO-AIS 51            
1 59062U 24039M   24271.50645321  .00053356  00000+0  14958-2 0  9992
2 59062  97.4003 233.3618 0012616 195.2918 164.7947 15.36337520 32260
SITRO-AIS 52            
1 59063U 24039N   24271.49312356  .00053389  00000+0  14910-2 0  9994
2 59063  97.4003 233.3824 0012365 194.8193 165.2690 15.36459765 32268
SITRO-AIS 25            
1 59066U 24039R   24271.52747692  .00013192  00000+0  12164-2 0  9993
2 59066  95.3939 166.7181 0166856 351.6065   8.2371 14.84663020 31283
SITRO-AIS 26            
1 59067U 24039S   24271.53034808  .00012586  00000+0  11633-2 0  9999
2 59067  95.3940 166.7147 0166918 351.6490   8.1958 14.84574968 31281
SITRO-AIS 27            
1 59068U 24039T   24271.50825824  .00013452  00000+0  12373-2 0  9998
2 59068  95.3940 166.7403 0166408 351.4268   8.4116 14.84802373 31285
SITRO-AIS 28            
1 59071U 24039U   24271.50265239  .00013233  00000+0  12163-2 0  9994
2 59071  95.3941 166.7474 0166226 351.4146   8.4238 14.84852576 31286
GRBBETA                 
1 60237U 24128C   24271.19548994  .00010165  00000+0  86646-3 0  9995
2 60237  61.9927 247.1929 0018900 343.5146  16.5326 14.98102698 11870
OOV-CUBE (TUBSAT-30)    
1 60240U 24128F   24271.43228708  .00006965  00000+0  61359-3 0  9991
2 60240  61.9964 246.7055 0016860 335.8096  24.2199 14.97207213 11918
ROBUSTA-3A (MEDITERRAN*)
1 60243U 24128J   24271.31072274  .00014901  00000+0  12801-2 0  9992
2 60243  61.9900 247.1585 0017892 325.8179  34.1756 14.97546549 11895
